STARLINK-32813          
1 62869U 25022R   26068.47026327  .00031243  00000+0  10629-2 0  9997
2 62869  53.1580 130.8391 0001390  88.0530 272.0630 15.30188357 61869
TEVEL2-1                
1 63217U 25052H   26068.64782323  .00020683  00000+0  70600-3 0  9994
2 63217  97.3991 324.7682 0004767 104.8919 255.2849 15.30341923 54855
